[
    {
        "links": {
            "self": "http://www.neowsapp.com/rest/v1/neo/2001943?api_key=aBU7hC4CuILQ1n1BEth7q6zH4ISNUjHrUkMBGgDP"
        },
        "id": "2001943",
        "neo_reference_id": "2001943",
        "name": "1943 Anteros (1973 EC)",
        "name_limited": "Anteros",
        "designation": "1943",
        "nasa_jpl_url": "http://ssd.jpl.nasa.gov/sbdb.cgi?sstr=2001943",
        "absolute_magnitude_h": 15.65,
        "estimated_diameter": {
            "kilometers": {
                "estimated_diameter_min": 1.9704026214,
                "estimated_diameter_max": 4.4059542044
            },
            "meters": {
                "estimated_diameter_min": 1970.4026213778,
                "estimated_diameter_max": 4405.9542044446
            },
            "miles": {
                "estimated_diameter_min": 1.2243510472,
                "estimated_diameter_max": 2.73773217
            },
            "feet": {
                "estimated_diameter_min": 6464.5757363213,
                "estimated_diameter_max": 14455.2307921101
            }
        },
        "is_potentially_hazardous_asteroid": false,
        "close_approach_data": {
            "close_approach_date": "2050-05-20",
            "close_approach_date_full": "2050-May-20 09:34",
            "epoch_date_close_approach": 2536652040000,
            "relative_velocity": {
                "kilometers_per_second": "5.4511579081",
                "kilometers_per_hour": "19624.1684691672",
                "miles_per_hour": "12193.6951246334"
            },
            "miss_distance": {
                "astronomical": "0.0636291365",
                "lunar": "24.7517340985",
                "kilometers": "9518783.290339255",
                "miles": "5914697.668441519"
            },
            "orbiting_body": "Earth"
        },
        "orbital_data": {
            "orbit_id": "666",
            "orbit_determination_date": "2021-12-17 04:50:23",
            "first_observation_date": "1973-03-10",
            "last_observation_date": "2021-12-16",
            "data_arc_in_days": 17813,
            "observations_used": 4482,
            "orbit_uncertainty": "0",
            "minimum_orbit_intersection": ".0631189",
            "jupiter_tisserand_invariant": "4.640",
            "epoch_osculation": "2459600.5",
            "eccentricity": ".2560374830252012",
            "semi_major_axis": "1.430366783212347",
            "inclination": "8.706034962025457",
            "ascending_node_longitude": "246.311070579533",
            "orbital_period": "624.841046475592",
            "perihelion_distance": "1.064139272235804",
            "perihelion_argument": "338.3801328052389",
            "aphelion_distance": "1.796594294188889",
            "perihelion_time": "2459298.699295275897",
            "mean_anomaly": "173.8814284264871",
            "mean_motion": ".5761465288341339",
            "equinox": "J2000",
            "orbit_class": {
                "orbit_class_type": "AMO",
                "orbit_class_description": "Near-Earth asteroid orbits similar to that of 1221 Amor",
                "orbit_class_range": "1.017 AU < q (perihelion) < 1.3 AU"
            }
        },
        "is_sentry_object": false
    },
    {
        "links": {
            "self": "http://www.neowsapp.com/rest/v1/neo/2001980?api_key=aBU7hC4CuILQ1n1BEth7q6zH4ISNUjHrUkMBGgDP"
        },
        "id": "2001980",
        "neo_reference_id": "2001980",
        "name": "1980 Tezcatlipoca (1950 LA)",
        "name_limited": "Tezcatlipoca",
        "designation": "1980",
        "nasa_jpl_url": "http://ssd.jpl.nasa.gov/sbdb.cgi?sstr=2001980",
        "absolute_magnitude_h": 13.8,
        "estimated_diameter": {
            "kilometers": {
                "estimated_diameter_min": 4.6190746028,
                "estimated_diameter_max": 10.328564805
            },
            "meters": {
                "estimated_diameter_min": 4619.0746028158,
                "estimated_diameter_max": 10328.5648050391
            },
            "miles": {
                "estimated_diameter_min": 2.870159005,
                "estimated_diameter_max": 6.4178706415
            },
            "feet": {
                "estimated_diameter_min": 15154.4447199023,
                "estimated_diameter_max": 33886.3685549643
            }
        },
        "is_potentially_hazardous_asteroid": false,
        "close_approach_data": {
            "close_approach_date": "1921-11-16",
            "close_approach_date_full": "1921-Nov-16 02:26",
            "epoch_date_close_approach": -1518730440000,
            "relative_velocity": {
                "kilometers_per_second": "16.7529351893",
                "kilometers_per_hour": "60310.5666816532",
                "miles_per_hour": "37474.6407250528"
            },
            "miss_distance": {
                "astronomical": "0.27016548",
                "lunar": "105.09437172",
                "kilometers": "40416180.3555276",
                "miles": "25113449.94677688"
            },
            "orbiting_body": "Earth"
        },
        "orbital_data": {
            "orbit_id": "580",
            "orbit_determination_date": "2021-07-10 05:56:46",
            "first_observation_date": "1950-06-19",
            "last_observation_date": "2021-07-08",
            "data_arc_in_days": 25952,
            "observations_used": 3733,
            "orbit_uncertainty": "0",
            "minimum_orbit_intersection": ".245414",
            "jupiter_tisserand_invariant": "3.996",
            "epoch_osculation": "2459600.5",
            "eccentricity": ".3648359123967504",
            "semi_major_axis": "1.709370985747121",
            "inclination": "26.8689695764886",
            "ascending_node_longitude": "246.560199388918",
            "orbital_period": "816.3058691850823",
            "perihelion_distance": "1.085731062537538",
            "perihelion_argument": "115.4661353995156",
            "aphelion_distance": "2.333010908956705",
            "perihelion_time": "2459704.443532098251",
            "mean_anomaly": "314.1597421163634",
            "mean_motion": ".4410111621020045",
            "equinox": "J2000",
            "orbit_class": {
                "orbit_class_type": "AMO",
                "orbit_class_description": "Near-Earth asteroid orbits similar to that of 1221 Amor",
                "orbit_class_range": "1.017 AU < q (perihelion) < 1.3 AU"
            }
        },
        "is_sentry_object": false
    },
    {
        "links": {
            "self": "http://www.neowsapp.com/rest/v1/neo/2001981?api_key=aBU7hC4CuILQ1n1BEth7q6zH4ISNUjHrUkMBGgDP,aBU7hC4CuILQ1n1BEth7q6zH4ISNUjHrUkMBGgDP"
        },
        "id": "2001981",
        "neo_reference_id": "2001981",
        "name": "1981 Midas (1973 EA)",
        "name_limited": "Midas",
        "designation": "1981",
        "nasa_jpl_url": "http://ssd.jpl.nasa.gov/sbdb.cgi?sstr=2001981",
        "absolute_magnitude_h": 15.22,
        "estimated_diameter": {
            "kilometers": {
                "estimated_diameter_min": 2.4019003012,
                "estimated_diameter_max": 5.3708123486
            },
            "meters": {
                "estimated_diameter_min": 2401.9003011539,
                "estimated_diameter_max": 5370.8123485573
            },
            "miles": {
                "estimated_diameter_min": 1.492471192,
                "estimated_diameter_max": 3.3372670398
            },
            "feet": {
                "estimated_diameter_min": 7880.2505840377,
                "estimated_diameter_max": 17620.7759856407
            }
        },
        "is_potentially_hazardous_asteroid": true,
        "close_approach_data": {
            "close_approach_date": "1947-03-19",
            "close_approach_date_full": "1947-Mar-19 20:13",
            "epoch_date_close_approach": -719120820000,
            "relative_velocity": {
                "kilometers_per_second": "27.7330010315",
                "kilometers_per_hour": "99838.8037132384",
                "miles_per_hour": "62035.9500072619"
            },
            "miss_distance": {
                "astronomical": "0.0297910969",
                "lunar": "11.5887366941",
                "kilometers": "4456684.641203603",
                "miles": "2769255.4239636014"
            },
            "orbiting_body": "Earth"
        },
        "orbital_data": {
            "orbit_id": "228",
            "orbit_determination_date": "2021-10-21 05:52:04",
            "first_observation_date": "1973-03-06",
            "last_observation_date": "2021-10-20",
            "data_arc_in_days": 17760,
            "observations_used": 1077,
            "orbit_uncertainty": "0",
            "minimum_orbit_intersection": ".00422617",
            "jupiter_tisserand_invariant": "3.611",
            "epoch_osculation": "2459600.5",
            "eccentricity": ".6501354173869655",
            "semi_major_axis": "1.776435963778408",
            "inclination": "39.82986428921579",
            "ascending_node_longitude": "356.856989856008",
            "orbital_period": "864.8141007093574",
            "perihelion_distance": ".6215120270061165",
            "perihelion_argument": "267.8286153951093",
            "aphelion_distance": "2.9313599005507",
            "perihelion_time": "2459978.776940838521",
            "mean_anomaly": "202.5329806831698",
            "mean_motion": ".4162744336669726",
            "equinox": "J2000",
            "orbit_class": {
                "orbit_class_type": "APO",
                "orbit_class_description": "Near-Earth asteroid orbits which cross the Earth\u2019s orbit similar to that of 1862 Apollo",
                "orbit_class_range": "a (semi-major axis) > 1.0 AU; q (perihelion) < 1.017 AU"
            }
        },
        "is_sentry_object": false
    }
]